{
  "norad_id": 53167,
  "name": "STARLINK-3683",
  "history": [
    {
      "epoch": "2026-04-14T20:55:09.899904Z",
      "apogee_km": 540.9371698245259,
      "perigee_km": 538.5020842918029,
      "latitude_deg": 3.4568028967161655e-05,
      "longitude_deg": -170.14996615417442,
      "height_km": 540.6753605885881,
      "semi_major_axis_km": 6917.856627058164,
      "eccentricity": 0.000176,
      "inclination_deg": 53.2166,
      "raan_deg": 346.6831,
      "arg_perigee_deg": 92.8566,
      "mean_anomaly_deg": 267.2628,
      "mean_motion_rev_day": 15.08847774
    },
    {
      "epoch": "2026-04-15T20:45:57.178368Z",
      "apogee_km": 540.797592669368,
      "perigee_km": 538.6917894826047,
      "latitude_deg": -5.275802338901448e-05,
      "longitude_deg": -173.28616232502551,
      "height_km": 540.7489173272293,
      "semi_major_axis_km": 6917.881691075986,
      "eccentricity": 0.0001522,
      "inclination_deg": 53.2187,
      "raan_deg": 342.2233,
      "arg_perigee_deg": 95.9197,
      "mean_anomaly_deg": 264.1968,
      "mean_motion_rev_day": 15.08839574
    },
    {
      "epoch": "2026-04-16T01:32:06.593280Z",
      "apogee_km": 540.8285654018518,
      "perigee_km": 538.6595329776892,
      "latitude_deg": 5.2420713116514207e-05,
      "longitude_deg": 114.08682001533427,
      "height_km": 540.7789056665493,
      "semi_major_axis_km": 6917.88104918977,
      "eccentricity": 0.00015677,
      "inclination_deg": 53.2192,
      "raan_deg": 341.3313,
      "arg_perigee_deg": 97.3766,
      "mean_anomaly_deg": 262.7405,
      "mean_motion_rev_day": 15.08839784
    },
    {
      "epoch": "2026-04-17T22:02:55.878720Z",
      "apogee_km": 540.8605090899364,
      "perigee_km": 538.6463690760047,
      "latitude_deg": 3.644208300520299e-05,
      "longitude_deg": 156.22814266176945,
      "height_km": 540.6440247434632,
      "semi_major_axis_km": 6917.89043908297,
      "eccentricity": 0.00016003,
      "inclination_deg": 53.2205,
      "raan_deg": 333.0061,
      "arg_perigee_deg": 89.7357,
      "mean_anomaly_deg": 270.3819,
      "mean_motion_rev_day": 15.08836712
    },
    {
      "epoch": "2026-04-18T07:35:14.979840Z",
      "apogee_km": 540.8345211485002,
      "perigee_km": 538.6808421762053,
      "latitude_deg": 3.7922424197738514e-05,
      "longitude_deg": 10.972917862354262,
      "height_km": 540.6473691690261,
      "semi_major_axis_km": 6917.894681662353,
      "eccentricity": 0.00015566,
      "inclination_deg": 53.2198,
      "raan_deg": 331.2222,
      "arg_perigee_deg": 89.6812,
      "mean_anomaly_deg": 270.4359,
      "mean_motion_rev_day": 15.08835324
    },
    {
      "epoch": "2026-04-19T07:26:01.699296Z",
      "apogee_km": 540.6143420493709,
      "perigee_km": 538.8400482406005,
      "latitude_deg": 1.0835594572050737e-05,
      "longitude_deg": 7.838999737683255,
      "height_km": 540.5746254770313,
      "semi_major_axis_km": 6917.864195144985,
      "eccentricity": 0.00012824,
      "inclination_deg": 53.2183,
      "raan_deg": 326.7623,
      "arg_perigee_deg": 86.8672,
      "mean_anomaly_deg": 273.2467,
      "mean_motion_rev_day": 15.08845298
    },
    {
      "epoch": "2026-04-20T07:16:48.258048Z",
      "apogee_km": 540.6034412392601,
      "perigee_km": 538.8295652439592,
      "latitude_deg": 1.8846246643326113e-05,
      "longitude_deg": 4.704277996920646,
      "height_km": 540.5593114114512,
      "semi_major_axis_km": 6917.853503241609,
      "eccentricity": 0.00012821,
      "inclination_deg": 53.2165,
      "raan_deg": 322.3009,
      "arg_perigee_deg": 86.5797,
      "mean_anomaly_deg": 273.5342,
      "mean_motion_rev_day": 15.08848796
    },
    {
      "epoch": "2026-04-21T19:50:39.809760Z",
      "apogee_km": 540.5847131117853,
      "perigee_km": 538.8469484806892,
      "latitude_deg": 8.42915025848093e-06,
      "longitude_deg": 167.89952448481182,
      "height_km": 540.5699758812603,
      "semi_major_axis_km": 6917.852830796237,
      "eccentricity": 0.0001256,
      "inclination_deg": 53.2182,
      "raan_deg": 315.4626,
      "arg_perigee_deg": 87.2429,
      "mean_anomaly_deg": 272.8707,
      "mean_motion_rev_day": 15.08849016
    },
    {
      "epoch": "2026-04-22T19:41:26.865312Z",
      "apogee_km": 540.6056149602518,
      "perigee_km": 538.8332601409511,
      "latitude_deg": 1.9932284627817312e-05,
      "longitude_deg": 164.7624287641964,
      "height_km": 540.5722940999642,
      "semi_major_axis_km": 6917.856437550601,
      "eccentricity": 0.0001281,
      "inclination_deg": 53.2182,
      "raan_deg": 311.0009,
      "arg_perigee_deg": 87.2157,
      "mean_anomaly_deg": 272.8982,
      "mean_motion_rev_day": 15.08847836
    },
    {
      "epoch": "2026-04-22T22:52:13.260000Z",
      "apogee_km": 540.5902633663618,
      "perigee_km": 538.884868928315,
      "latitude_deg": -2.8352037231402557e-05,
      "longitude_deg": 116.34430169655107,
      "height_km": 540.6164988603493,
      "semi_major_axis_km": 6917.874566147338,
      "eccentricity": 0.00012326,
      "inclination_deg": 53.2179,
      "raan_deg": 310.4067,
      "arg_perigee_deg": 88.8571,
      "mean_anomaly_deg": 271.2562,
      "mean_motion_rev_day": 15.08841905
    },
    {
      "epoch": "2026-04-24T19:23:01.152672Z",
      "apogee_km": 540.705184728592,
      "perigee_km": 538.7875474595103,
      "latitude_deg": -4.978357052893833e-05,
      "longitude_deg": 158.48963392676353,
      "height_km": 540.7076582771567,
      "semi_major_axis_km": 6917.883366094051,
      "eccentricity": 0.0001386,
      "inclination_deg": 53.2187,
      "raan_deg": 302.0797,
      "arg_perigee_deg": 93.9155,
      "mean_anomaly_deg": 266.1995,
      "mean_motion_rev_day": 15.08839026
    }
  ]
}